start=new Date('2023-03-05T00:00:00.000Z').valueOf();
sats=[{"REV_AT_EPOCH":"11430","TLE_LINE2":"2 47630  53.0537 314.1462 0001087  95.4060 264.7053 15.06467483114306","CLASSIFICATION_TYPE":"U","INCLINATION":"53.0537","MEAN_ELEMENT_THEORY":"SGP4","OBJECT_NAME":"STARLINK-1983","ECCENTRICITY":"0.00010870","SITE":"AFETR","EPOCH":"2023-03-04T17:19:21.132768","GP_ID":"227507858","COUNTRY_CODE":"US","APOAPSIS":"547.760","LAUNCH_DATE":"2021-02-16","RA_OF_ASC_NODE":"314.1462","FILE":"3851350","MEAN_MOTION":"15.06467483","RCS_SIZE":"LARGE","ARG_OF_PERICENTER":"95.4060","MEAN_ANOMALY":"264.7053","PERIOD":"95.588","DECAY_DATE":null,"EPHEMERIS_TYPE":"0","TLE_LINE1":"1 47630U 21012L   23063.72177237  .00016857  00000-0  11458-2 0  9994","PERIAPSIS":"546.254","NORAD_CAT_ID":"47630","MEAN_MOTION_DOT":"0.00016857","ELEMENT_SET_NO":"999","BSTAR":"0.00114580000000","OBJECT_ID":"2021-012L","MEAN_MOTION_DDOT":"0.0000000000000","TIME_SYSTEM":"UTC","OBJECT_TYPE":"PAYLOAD","REF_FRAME":"TEME","SEMIMAJOR_AXIS":"6925.142","CENTER_NAME":"EARTH"},{"FILE":"3851350","MEAN_MOTION":"15.06405454","RCS_SIZE":"LARGE","ARG_OF_PERICENTER":"79.5467","RA_OF_ASC_NODE":"238.1880","APOAPSIS":"548.037","LAUNCH_DATE":"2021-02-16","SITE":"AFETR","ECCENTRICITY":"0.00012130","EPOCH":"2023-03-04T21:56:01.103424","GP_ID":"227506620","COUNTRY_CODE":"US","OBJECT_NAME":"STARLINK-1992","MEAN_ELEMENT_THEORY":"SGP4","TLE_LINE2":"2 47632  53.0521 238.1880 0001213  79.5467 280.5659 15.06405454115382","REV_AT_EPOCH":"11538","CLASSIFICATION_TYPE":"U","INCLINATION":"53.0521","REF_FRAME":"TEME","SEMIMAJOR_AXIS":"6925.332","CENTER_NAME":"EARTH","TIME_SYSTEM":"UTC","OBJECT_TYPE":"PAYLOAD","OBJECT_ID":"2021-012N","MEAN_MOTION_DDOT":"0.0000000000000","ELEMENT_SET_NO":"999","BSTAR":"0.00016642000000","MEAN_MOTION_DOT":"0.00002199","PERIAPSIS":"546.357","TLE_LINE1":"1 47632U 21012N   23063.91390166  .00002199  00000-0  16642-3 0  9990","NORAD_CAT_ID":"47632","MEAN_ANOMALY":"280.5659","DECAY_DATE":null,"PERIOD":"95.592","EPHEMERIS_TYPE":"0"},{"ELEMENT_SET_NO":"999","BSTAR":"0.00142420000000","OBJECT_ID":"2021-012P","MEAN_MOTION_DDOT":"0.0000000000000","TIME_SYSTEM":"UTC","OBJECT_TYPE":"PAYLOAD","REF_FRAME":"TEME","CENTER_NAME":"EARTH","SEMIMAJOR_AXIS":"6925.307","MEAN_ANOMALY":"257.0961","PERIOD":"95.591","DECAY_DATE":null,"EPHEMERIS_TYPE":"0","PERIAPSIS":"546.184","TLE_LINE1":"1 47633U 21012P   23063.73374788  .00021003  00000-0  14242-2 0  9991","NORAD_CAT_ID":"47633","MEAN_MOTION_DOT":"0.00021003","APOAPSIS":"548.160","LAUNCH_DATE":"2021-02-16","RA_OF_ASC_NODE":"334.0369","FILE":"3851350","MEAN_MOTION":"15.06413568","ARG_OF_PERICENTER":"103.0187","RCS_SIZE":"LARGE","CLASSIFICATION_TYPE":"U","REV_AT_EPOCH":"11406","TLE_LINE2":"2 47633  53.0533 334.0369 0001427 103.0187 257.0961 15.06413568114067","INCLINATION":"53.0533","MEAN_ELEMENT_THEORY":"SGP4","OBJECT_NAME":"STARLINK-2009","EPOCH":"2023-03-04T17:36:35.816832","SITE":"AFETR","ECCENTRICITY":"0.00014270","COUNTRY_CODE":"US","GP_ID":"227506869"},{"CENTER_NAME":"EARTH","SEMIMAJOR_AXIS":"6925.352","REF_FRAME":"TEME","OBJECT_TYPE":"PAYLOAD","TIME_SYSTEM":"UTC","MEAN_MOTION_DDOT":"0.0000000000000","OBJECT_ID":"2021-012Q","BSTAR":"0.00107020000000","ELEMENT_SET_NO":"999","MEAN_MOTION_DOT":"0.00015694","NORAD_CAT_ID":"47634","PERIAPSIS":"546.034","TLE_LINE1":"1 47634U 21012Q   23063.77524141  .00015694  00000-0  10702-2 0  9992","DECAY_DATE":null,"PERIOD":"95.592","EPHEMERIS_TYPE":"0","MEAN_ANOMALY":"258.3514","ARG_OF_PERICENTER":"101.7666","RCS_SIZE":"LARGE","MEAN_MOTION":"15.06398715","FILE":"3851350","RA_OF_ASC_NODE":"333.8179","LAUNCH_DATE":"2021-02-16","APOAPSIS":"548.401","COUNTRY_CODE":"US","GP_ID":"227507621","EPOCH":"2023-03-04T18:36:20.857824","ECCENTRICITY":"0.00017090","SITE":"AFETR","OBJECT_NAME":"STARLINK-2010","MEAN_ELEMENT_THEORY":"SGP4","INCLINATION":"53.0532","CLASSIFICATION_TYPE":"U","TLE_LINE2":"2 47634  53.0532 333.8179 0001709 101.7666 258.3514 15.06398715114045","REV_AT_EPOCH":"11404"},{"ELEMENT_SET_NO":"999","BSTAR":"0.00016927000000","OBJECT_ID":"2021-012R","MEAN_MOTION_DDOT":"0.0000000000000","TIME_SYSTEM":"UTC","OBJECT_TYPE":"PAYLOAD","REF_FRAME":"TEME","SEMIMAJOR_AXIS":"6925.343","CENTER_NAME":"EARTH","MEAN_ANOMALY":"268.2698","EPHEMERIS_TYPE":"0","DECAY_DATE":null,"PERIOD":"95.592","PERIAPSIS":"546.169","TLE_LINE1":"1 47635U 21012R   23063.73423770  .00002241  00000-0  16927-3 0  9995","NORAD_CAT_ID":"47635","MEAN_MOTION_DOT":"0.00002241","APOAPSIS":"548.248","LAUNCH_DATE":"2021-02-16","RA_OF_ASC_NODE":"239.0008","FILE":"3851350","MEAN_MOTION":"15.06401793","RCS_SIZE":"LARGE","ARG_OF_PERICENTER":"91.8462","TLE_LINE2":"2 47635  53.0512 239.0008 0001501  91.8462 268.2698 15.06401793115376","REV_AT_EPOCH":"11537","CLASSIFICATION_TYPE":"U","INCLINATION":"53.0512","MEAN_ELEMENT_THEORY":"SGP4","OBJECT_NAME":"STARLINK-2012","ECCENTRICITY":"0.00015010","SITE":"AFETR","EPOCH":"2023-03-04T17:37:18.137280","GP_ID":"227508358","COUNTRY_CODE":"US"},{"OBJECT_TYPE":"PAYLOAD","TIME_SYSTEM":"UTC","SEMIMAJOR_AXIS":"6925.381","CENTER_NAME":"EARTH","REF_FRAME":"TEME","BSTAR":"0.00116320000000","ELEMENT_SET_NO":"999","MEAN_MOTION_DDOT":"0.0000000000000","OBJECT_ID":"2021-012S","NORAD_CAT_ID":"47636","PERIAPSIS":"545.985","TLE_LINE1":"1 47636U 21012S   23063.96139016  .00017082  00000-0  11632-2 0  9994","MEAN_MOTION_DOT":"0.00017082","DECAY_DATE":null,"PERIOD":"95.593","EPHEMERIS_TYPE":"0","MEAN_ANOMALY":"272.7576","RA_OF_ASC_NODE":"312.9852","RCS_SIZE":"LARGE","ARG_OF_PERICENTER":"87.3621","FILE":"3851350","MEAN_MOTION":"15.06389412","LAUNCH_DATE":"2021-02-16","APOAPSIS":"548.507","OBJECT_NAME":"STARLINK-2013","GP_ID":"227507120","COUNTRY_CODE":"US","ECCENTRICITY":"0.00018210","SITE":"AFETR","EPOCH":"2023-03-04T23:04:24.109824","INCLINATION":"53.0528","REV_AT_EPOCH":"11435","TLE_LINE2":"2 47636  53.0528 312.9852 0001821  87.3621 272.7576 15.06389412114359","CLASSIFICATION_TYPE":"U","MEAN_ELEMENT_THEORY":"SGP4"},{"APOAPSIS":"547.847","LAUNCH_DATE":"2021-02-16","RA_OF_ASC_NODE":"316.6918","FILE":"3851072","MEAN_MOTION":"15.06445461","RCS_SIZE":"LARGE","ARG_OF_PERICENTER":"109.7341","REV_AT_EPOCH":"11424","TLE_LINE2":"2 47637  53.0540 316.6918 0001116 109.7341 250.3768 15.06445461114243","CLASSIFICATION_TYPE":"U","INCLINATION":"53.0540","MEAN_ELEMENT_THEORY":"SGP4","OBJECT_NAME":"STARLINK-2014","ECCENTRICITY":"0.00011160","SITE":"AFETR","EPOCH":"2023-03-04T03:15:26.535456","GP_ID":"227473600","COUNTRY_CODE":"US","ELEMENT_SET_NO":"999","BSTAR":"0.00191440000000","OBJECT_ID":"2021-012T","MEAN_MOTION_DDOT":"0.0000000000000","TIME_SYSTEM":"UTC","OBJECT_TYPE":"PAYLOAD","REF_FRAME":"TEME","SEMIMAJOR_AXIS":"6925.209","CENTER_NAME":"EARTH","MEAN_ANOMALY":"250.3768","DECAY_DATE":null,"EPHEMERIS_TYPE":"0","PERIOD":"95.589","PERIAPSIS":"546.301","TLE_LINE1":"1 47637U 21012T   23063.13572379  .00028384  00000-0  19144-2 0  9990","NORAD_CAT_ID":"47637","MEAN_MOTION_DOT":"0.00028384"},{"SITE":"AFETR","ECCENTRICITY":"0.00016120","EPOCH":"2023-03-04T20:43:04.171872","GP_ID":"227508121","COUNTRY_CODE":"US","OBJECT_NAME":"STARLINK-2015","MEAN_ELEMENT_THEORY":"SGP4","TLE_LINE2":"2 47638  53.0540 238.4152 0001612  79.9526 280.1645 15.06405162115373","REV_AT_EPOCH":"11537","CLASSIFICATION_TYPE":"U","INCLINATION":"53.0540","FILE":"3851350","MEAN_MOTION":"15.06405162","RCS_SIZE":"LARGE","ARG_OF_PERICENTER":"79.9526","RA_OF_ASC_NODE":"238.4152","APOAPSIS":"548.314","LAUNCH_DATE":"2021-02-16","MEAN_MOTION_DOT":"-0.00001217","PERIAPSIS":"546.081","TLE_LINE1":"1 47638U 21012U   23063.86324273 -.00001217  00000-0 -62813-4 0  9990","NORAD_CAT_ID":"47638","MEAN_ANOMALY":"280.1645","DECAY_DATE":null,"PERIOD":"95.592","EPHEMERIS_TYPE":"0","REF_FRAME":"TEME","SEMIMAJOR_AXIS":"6925.333","CENTER_NAME":"EARTH","TIME_SYSTEM":"UTC","OBJECT_TYPE":"PAYLOAD","OBJECT_ID":"2021-012U","MEAN_MOTION_DDOT":"0.0000000000000","ELEMENT_SET_NO":"999","BSTAR":"-0.00006281300000"},{"FILE":"3851350","MEAN_MOTION":"15.06407568","RCS_SIZE":"LARGE","ARG_OF_PERICENTER":"91.4244","RA_OF_ASC_NODE":"314.1110","APOAPSIS":"548.139","LAUNCH_DATE":"2021-02-16","SITE":"AFETR","ECCENTRICITY":"0.00013700","EPOCH":"2023-03-04T17:03:28.007712","GP_ID":"227507859","COUNTRY_CODE":"US","OBJECT_NAME":"STARLINK-2016","MEAN_ELEMENT_THEORY":"SGP4","TLE_LINE2":"2 47639  53.0535 314.1110 0001370  91.4244 268.6902 15.06407568114302","REV_AT_EPOCH":"11430","CLASSIFICATION_TYPE":"U","INCLINATION":"53.0535","REF_FRAME":"TEME","SEMIMAJOR_AXIS":"6925.325","CENTER_NAME":"EARTH","TIME_SYSTEM":"UTC","OBJECT_TYPE":"PAYLOAD","OBJECT_ID":"2021-012V","MEAN_MOTION_DDOT":"0.0000000000000","ELEMENT_SET_NO":"999","BSTAR":"0.00145930000000","MEAN_MOTION_DOT":"0.00021526","TLE_LINE1":"1 47639U 21012V   23063.71074083  .00021526  00000-0  14593-2 0  9999","PERIAPSIS":"546.242","NORAD_CAT_ID":"47639","MEAN_ANOMALY":"268.6902","EPHEMERIS_TYPE":"0","DECAY_DATE":null,"PERIOD":"95.592"},{"REF_FRAME":"TEME","CENTER_NAME":"EARTH","SEMIMAJOR_AXIS":"6925.410","TIME_SYSTEM":"UTC","OBJECT_TYPE":"PAYLOAD","OBJECT_ID":"2021-012W","MEAN_MOTION_DDOT":"0.0000000000000","ELEMENT_SET_NO":"999","BSTAR":"0.00076044000000","MEAN_MOTION_DOT":"0.00011057","TLE_LINE1":"1 47640U 21012W   23063.77156277  .00011057  00000-0  76044-3 0  9991","PERIAPSIS":"546.619","NORAD_CAT_ID":"47640","MEAN_ANOMALY":"263.3210","EPHEMERIS_TYPE":"0","DECAY_DATE":null,"PERIOD":"95.593","FILE":"3851350","MEAN_MOTION":"15.06380106","ARG_OF_PERICENTER":"96.7887","RCS_SIZE":"LARGE","RA_OF_ASC_NODE":"333.8345","APOAPSIS":"547.930","LAUNCH_DATE":"2021-02-16","EPOCH":"2023-03-04T18:31:03.023328","SITE":"AFETR","ECCENTRICITY":"0.00009470","COUNTRY_CODE":"US","GP_ID":"227506621","OBJECT_NAME":"STARLINK-2018","MEAN_ELEMENT_THEORY":"SGP4","CLASSIFICATION_TYPE":"U","TLE_LINE2":"2 47640  53.0551 333.8345 0000947  96.7887 263.3210 15.06380106114054","REV_AT_EPOCH":"11405","INCLINATION":"53.0551"}];
